{"type": "FeatureCollection", "features": [ {"type": "Feature", "properties": {"norad_id": 44476, "name": "INTELSAT 39 (IS-39)", "group": "intelsat", "lat": 0.029326832892052127, "lon": 102.59706082122229, "alt_km": 35784.199577163985, "timestamp": "2025-12-08T21:31:04.343197+00:00", "meta": {"OBJECT_NAME": "INTELSAT 39 (IS-39)", "OBJECT_ID": "2019-049B", "EPOCH": "2025-12-08T10:28:25.232160", "MEAN_MOTION": 1.00270315, "ECCENTRICITY": 8.757e-05, "INCLINATION": 0.0178, "RA_OF_ASC_NODE": 326.9811, "ARG_OF_PERICENTER": 187.7371, "MEAN_ANOMALY": 141.7767, "EPHEMERIS_TYPE": 0, "CLASSIFICATION_TYPE": "U", "NORAD_CAT_ID": 44476, "ELEMENT_SET_NO": 999, "REV_AT_EPOCH": 2321, "BSTAR": 0, "MEAN_MOTION_DOT": 3.6e-07, "MEAN_MOTION_DDOT": 0}, "tle": {"line1": "1 44476U 19049B   25342.43640315  .00000036  00000+0  00000+0 0  9997", "line2": "2 44476   0.0178 326.9811 0000875 187.7371 141.7767  1.00270315 23217"}}, "geometry": {"type": "Point", "coordinates": [102.59706082122229, 0.029326832892052127]}}, {"type": "Feature", "properties": {"norad_id": 46114, "name": "GALAXY 30 (G-30)", "group": "intelsat", "lat": -0.036293632780351075, "lon": -84.33601782547542, "alt_km": 35776.532068903965, "timestamp": "2025-12-08T21:31:04.343209+00:00", "meta": {"OBJECT_NAME": "GALAXY 30 (G-30)", "OBJECT_ID": "2020-056C", "EPOCH": "2025-12-08T13:07:15.729312", "MEAN_MOTION": 1.00271158, "ECCENTRICITY": 0.00024175, "INCLINATION": 0.0164, "RA_OF_ASC_NODE": 353.8278, "ARG_OF_PERICENTER": 263.3172, "MEAN_ANOMALY": 252.2177, "EPHEMERIS_TYPE": 0, "CLASSIFICATION_TYPE": "U", "NORAD_CAT_ID": 46114, "ELEMENT_SET_NO": 999, "REV_AT_EPOCH": 1938, "BSTAR": 0, "MEAN_MOTION_DOT": 3.9e-07, "MEAN_MOTION_DDOT": 0}, "tle": {"line1": "1 46114U 20056C   25342.54670983  .00000039  00000+0  00000+0 0  9997", "line2": "2 46114   0.0164 353.8278 0002417 263.3172 252.2177  1.00271158 19385"}}, "geometry": {"type": "Point", "coordinates": [-84.33601782547542, -0.036293632780351075]}}, {"type": "Feature", "properties": {"norad_id": 54026, "name": "GALAXY 33 (G-33)", "group": "intelsat", "lat": -0.02473651548007295, "lon": -92.33126386610887, "alt_km": 35776.912103875, "timestamp": "2025-12-08T21:31:04.343221+00:00", "meta": {"OBJECT_NAME": "GALAXY 33 (G-33)", "OBJECT_ID": "2022-128A", "EPOCH": "2025-12-08T12:03:30.605184", "MEAN_MOTION": 1.0027166, "ECCENTRICITY": 0.00022712, "INCLINATION": 0.0164, "RA_OF_ASC_NODE": 301.4781, "ARG_OF_PERICENTER": 308.6459, "MEAN_ANOMALY": 235.2621, "EPHEMERIS_TYPE": 0, "CLASSIFICATION_TYPE": "U", "NORAD_CAT_ID": 54026, "ELEMENT_SET_NO": 999, "REV_AT_EPOCH": 1183, "BSTAR": 0, "MEAN_MOTION_DOT": 8.1e-07, "MEAN_MOTION_DDOT": 0}, "tle": {"line1": "1 54026U 22128A   25342.50243756  .00000081  00000+0  00000+0 0  9997", "line2": "2 54026   0.0164 301.4781 0002271 308.6459 235.2621  1.00271660 11838"}}, "geometry": {"type": "Point", "coordinates": [-92.33126386610887, -0.02473651548007295]}}, {"type": "Feature", "properties": {"norad_id": 54027, "name": "GALAXY 34 (G-34)", "group": "intelsat", "lat": -0.03734704046098659, "lon": -88.26862900178362, "alt_km": 35781.58621898175, "timestamp": "2025-12-08T21:31:04.343233+00:00", "meta": {"OBJECT_NAME": "GALAXY 34 (G-34)", "OBJECT_ID": "2022-128B", "EPOCH": "2025-12-08T12:04:59.032992", "MEAN_MOTION": 1.00270185, "ECCENTRICITY": 0.00012919, "INCLINATION": 0.0269, "RA_OF_ASC_NODE": 317.8338, "ARG_OF_PERICENTER": 287.9468, "MEAN_ANOMALY": 244.0411, "EPHEMERIS_TYPE": 0, "CLASSIFICATION_TYPE": "U", "NORAD_CAT_ID": 54027, "ELEMENT_SET_NO": 999, "REV_AT_EPOCH": 1200, "BSTAR": 0, "MEAN_MOTION_DOT": 0, "MEAN_MOTION_DDOT": 0}, "tle": {"line1": "1 54027U 22128B   25342.50346103  .00000000  00000+0  00000+0 0  9999", "line2": "2 54027   0.0269 317.8338 0001291 287.9468 244.0411  1.00270185 12000"}}, "geometry": {"type": "Point", "coordinates": [-88.26862900178362, -0.03734704046098659]}}, {"type": "Feature", "properties": {"norad_id": 54243, "name": "GALAXY 31 (G-31)", "group": "intelsat", "lat": -0.0074338892036386025, "lon": -80.33398875032141, "alt_km": 35778.21998191271, "timestamp": "2025-12-08T21:31:04.343244+00:00", "meta": {"OBJECT_NAME": "GALAXY 31 (G-31)", "OBJECT_ID": "2022-153A", "EPOCH": "2025-12-08T14:00:02.750688", "MEAN_MOTION": 1.00271343, "ECCENTRICITY": 0.00019138, "INCLINATION": 0.0214, "RA_OF_ASC_NODE": 257.6289, "ARG_OF_PERICENTER": 11.9169, "MEAN_ANOMALY": 257.0556, "EPHEMERIS_TYPE": 0, "CLASSIFICATION_TYPE": "U", "NORAD_CAT_ID": 54243, "ELEMENT_SET_NO": 999, "REV_AT_EPOCH": 522, "BSTAR": 0, "MEAN_MOTION_DOT": 1.5e-07, "MEAN_MOTION_DDOT": 0}, "tle": {"line1": "1 54243U 22153A   25342.58336517  .00000015  00000+0  00000+0 0  9999", "line2": "2 54243   0.0214 257.6289 0001913  11.9169 257.0556  1.00271343  5227"}}, "geometry": {"type": "Point", "coordinates": [-80.33398875032141, -0.0074338892036386025]}}, {"type": "Feature", "properties": {"norad_id": 54244, "name": "GALAXY 32 (G-32)", "group": "intelsat", "lat": -0.0163862073464152, "lon": -50.340542393758994, "alt_km": 35775.012987654874, "timestamp": "2025-12-08T21:31:04.343256+00:00", "meta": {"OBJECT_NAME": "GALAXY 32 (G-32)", "OBJECT_ID": "2022-153B", "EPOCH": "2025-12-08T12:27:22.096800", "MEAN_MOTION": 1.00270602, "ECCENTRICITY": 0.00027139, "INCLINATION": 0.0093, "RA_OF_ASC_NODE": 341.4541, "ARG_OF_PERICENTER": 326.1977, "MEAN_ANOMALY": 225.7141, "EPHEMERIS_TYPE": 0, "CLASSIFICATION_TYPE": "U", "NORAD_CAT_ID": 54244, "ELEMENT_SET_NO": 999, "REV_AT_EPOCH": 1123, "BSTAR": 0, "MEAN_MOTION_DOT": -1.72e-06, "MEAN_MOTION_DDOT": 0}, "tle": {"line1": "1 54244U 22153B   25342.51900575 -.00000172  00000+0  00000+0 0  9999", "line2": "2 54244   0.0093 341.4541 0002713 326.1977 225.7141  1.00270602 11230"}}, "geometry": {"type": "Point", "coordinates": [-50.340542393758994, -0.0163862073464152]}}, {"type": "Feature", "properties": {"norad_id": 54741, "name": "GALAXY 35 (G-35)", "group": "intelsat", "lat": -0.018105303526953366, "lon": -52.40645919989719, "alt_km": 35778.079247672234, "timestamp": "2025-12-08T21:31:04.343267+00:00", "meta": {"OBJECT_NAME": "GALAXY 35 (G-35)", "OBJECT_ID": "2022-170A", "EPOCH": "2025-12-08T12:28:10.909344", "MEAN_MOTION": 1.00271051, "ECCENTRICITY": 0.00026798, "INCLINATION": 0.0182, "RA_OF_ASC_NODE": 72.839, "ARG_OF_PERICENTER": 191.2736, "MEAN_ANOMALY": 267.3706, "EPHEMERIS_TYPE": 0, "CLASSIFICATION_TYPE": "U", "NORAD_CAT_ID": 54741, "ELEMENT_SET_NO": 999, "REV_AT_EPOCH": 1098, "BSTAR": 0, "MEAN_MOTION_DOT": -1.6e-06, "MEAN_MOTION_DDOT": 0}, "tle": {"line1": "1 54741U 22170A   25342.51957071 -.00000160  00000+0  00000+0 0  9990", "line2": "2 54741   0.0182  72.8390 0002679 191.2736 267.3706  1.00271051 10982"}}, "geometry": {"type": "Point", "coordinates": [-52.40645919989719, -0.018105303526953366]}}, {"type": "Feature", "properties": {"norad_id": 54742, "name": "GALAXY 36 (G-36)", "group": "intelsat", "lat": -0.020772343143042667, "lon": -48.34006769176664, "alt_km": 35784.17103998326, "timestamp": "2025-12-08T21:31:04.343279+00:00", "meta": {"OBJECT_NAME": "GALAXY 36 (G-36)", "OBJECT_ID": "2022-170B", "EPOCH": "2025-12-08T12:29:48.274368", "MEAN_MOTION": 1.00270893, "ECCENTRICITY": 5.86e-05, "INCLINATION": 0.009, "RA_OF_ASC_NODE": 15.022, "ARG_OF_PERICENTER": 268.7828, "MEAN_ANOMALY": 252.1699, "EPHEMERIS_TYPE": 0, "CLASSIFICATION_TYPE": "U", "NORAD_CAT_ID": 54742, "ELEMENT_SET_NO": 999, "REV_AT_EPOCH": 1086, "BSTAR": 0, "MEAN_MOTION_DOT": -1.83e-06, "MEAN_MOTION_DDOT": 0}, "tle": {"line1": "1 54742U 22170B   25342.52069762 -.00000183  00000+0  00000+0 0  9998", "line2": "2 54742   0.0090  15.0220 0000586 268.7828 252.1699  1.00270893 10862"}}, "geometry": {"type": "Point", "coordinates": [-48.34006769176664, -0.020772343143042667]}}, {"type": "Feature", "properties": {"norad_id": 57493, "name": "GALAXY 37 (G-37)", "group": "intelsat", "lat": -0.026237818537219407, "lon": -86.33244712389737, "alt_km": 35776.35418289377, "timestamp": "2025-12-08T21:31:04.343290+00:00", "meta": {"OBJECT_NAME": "GALAXY 37 (G-37)", "OBJECT_ID": "2023-112A", "EPOCH": "2025-12-08T12:05:59.143200", "MEAN_MOTION": 1.00271243, "ECCENTRICITY": 0.00023707, "INCLINATION": 0.0102, "RA_OF_ASC_NODE": 325.4771, "ARG_OF_PERICENTER": 297.2918, "MEAN_ANOMALY": 229.2399, "EPHEMERIS_TYPE": 0, "CLASSIFICATION_TYPE": "U", "NORAD_CAT_ID": 57493, "ELEMENT_SET_NO": 999, "REV_AT_EPOCH": 863, "BSTAR": 0, "MEAN_MOTION_DOT": 5e-07, "MEAN_MOTION_DDOT": 0}, "tle": {"line1": "1 57493U 23112A   25342.50415675  .00000050  00000+0  00000+0 0  9999", "line2": "2 57493   0.0102 325.4771 0002370 297.2918 229.2399  1.00271243  8635"}}, "geometry": {"type": "Point", "coordinates": [-86.33244712389737, -0.026237818537219407]}}]}